IRIDIUM 155             
1 43573U 18061E   25320.52640985  .00000441  00000+0  15027-3 0  9995
2 43573  86.3963 145.5884 0001811  90.0056 270.1348 14.34215621382877
IRIDIUM 154             
1 43574U 18061F   25320.78646294  .00000470  00000+0  16090-3 0  9996
2 43574  86.3961 145.6025 0002118  87.8145 272.3294 14.34217552382967
IRIDIUM 163             
1 43575U 18061G   25320.48835693  .00000074  00000+0  19386-4 0  9999
2 43575  86.3964 145.6495 0002056  84.3404 275.8026 14.34219600382892
IRIDIUM 156             
1 43576U 18061H   25320.46299005  .00000037  00000+0  60419-5 0  9992
2 43576  86.3968 145.6675 0001750  92.3354 267.8043 14.34217796382883
IRIDIUM 164             
1 43577U 18061J   25320.44396328  .00000437  00000+0  14915-3 0  9999
2 43577  86.3970 145.7098 0002154  90.7107 269.4336 14.34217368382927
IRIDIUM 159             
1 43578U 18061K   25320.48201921  .00000451  00000+0  15397-3 0  9999
2 43578  86.3970 145.6374 0002168  87.4075 272.7369 14.34216884382897
IRIDIUM 180             
1 43922U 19002A   25320.62105380  .00000529  00000+0  18190-3 0  9996
2 43922  86.3956  82.4597 0002070  89.6702 270.4732 14.34212905358524
IRIDIUM 176             
1 43923U 19002B   25320.62400565  .00001905  00000+0  29815-3 0  9995
2 43923  86.6075  82.4325 0001861  92.5668 267.5762 14.72248504367975
IRIDIUM 168             
1 43924U 19002C   25320.61471065  .00000529  00000+0  18191-3 0  9994
2 43924  86.3954  82.5334 0002026  90.6855 269.4573 14.34213396358500
IRIDIUM 173             
1 43925U 19002D   25320.39271762  .00000368  00000+0  12431-3 0  9994
2 43925  86.3952  82.5239 0001998  92.8754 267.2671 14.34212170358450
IRIDIUM 169             
1 43926U 19002E   25320.68980387  .00000313  00000+0  95690-4 0  9996
2 43926  86.4196 114.0504 0000985  66.1567 293.9735 14.38607293359679
IRIDIUM 172             
1 43927U 19002F   25320.38637745  .00000505  00000+0  17312-3 0  9998
2 43927  86.3951  82.5337 0002124  88.2288 271.9151 14.34212786358462
IRIDIUM 175             
1 43928U 19002G   25320.61917998  .00001258  00000+0  19557-3 0  9995
2 43928  86.1544  26.3143 0002519 113.3618 246.7864 14.72236243367967
IRIDIUM 171             
1 43929U 19002H   25320.57664549  .00000306  00000+0  10223-3 0  9996
2 43929  86.3963  82.7376 0001987 101.8659 258.2760 14.34221674358484
IRIDIUM 170             
1 43930U 19002J   25320.63014884  .00001799  00000+0  28139-3 0  9998
2 43930  86.6077  82.4338 0002391  90.6250 269.5241 14.72253067367989
IRIDIUM 167             
1 43931U 19002K   25320.43077273  .00000497  00000+0  17044-3 0  9995
2 43931  86.3953  82.5360 0001626 104.8763 255.2613 14.34212733358464
IRIDIUM 181             
1 56726U 23068S   25320.75053243  .00000136  00000+0  34375-4 0  9991
2 56726  86.4514 145.5809 0002460  98.1711 261.9769 14.43306596131799
IRIDIUM 177             
1 56727U 23068T   25320.37752917  .00001612  00000+0  20885-3 0  9994
2 56727  86.1947  69.8417 0002454  86.0076 274.1426 14.80189774134880
IRIDIUM 174             
1 56728U 23068U   25320.61780332  .00001981  00000+0  31023-3 0  9999
2 56728  86.6081  82.5651 0002379  89.7038 270.4452 14.72244606134741
IRIDIUM 178             
1 56729U 23068V   25320.70463228  .00000783  00000+0  99664-4 0  9997
2 56729  86.6521 114.1779 0001918  92.2244 267.9197 14.80221913134933
IRIDIUM 179             
1 56730U 23068W   25320.69925780  .00002810  00000+0  36642-3 0  9992
2 56730  86.6754 122.5233 0002211 102.3501 257.7968 14.80227466134939
